BATSU-CS1 (IRAZU)       
1 43468U 98067NR  19352.48774084  .00067678  00000-0  29461-3 0  9996
2 43468  51.6339 111.6577 0002154 290.2947  69.7825 15.84135174191756
CUBERRT                 
1 43546U 98067NU  19351.89312549  .00008181  00000-0  76548-4 0  9994
2 43546  51.6359 134.1104 0004223 110.9618 249.1831 15.68265742 81557
TEMPEST-D               
1 43547U 98067NV  19352.17589132  .00003734  00000-0  51646-4 0  9992
2 43547  51.6369 150.2924 0005940  92.1046 268.0627 15.59957665 81040
RAINCUBE                
1 43548U 98067NW  19352.14852674  .00013346  00000-0  13206-3 0  9993
2 43548  51.6346 140.2982 0004862 113.3085 246.8423 15.66200036 81623
HALOSAT                 
1 43549U 98067NX  19351.90924717  .00010374  00000-0  10466-3 0  9998
2 43549  51.6361 141.7342 0004737 113.5722 246.5772 15.66012149 81145
ENDUROSAT ONE           
1 43551U 98067NZ  19352.13490957  .00017646  00000-0  15448-3 0  9995
2 43551  51.6347 135.7188 0004762 127.6864 232.4565 15.68978983 81653
EQUISAT                 
1 43552U 98067PA  19351.80870490  .00013997  00000-0  13718-3 0  9996
2 43552  51.6366 141.1012 0005423 120.4429 239.7104 15.66389744 81518
AEROCUBE 12A            
1 43556U 18046C   19352.14411067  .00000746  00000-0  38433-4 0  9998
2 43556  51.6427 261.1505 0008511   7.7921 352.3190 15.29225780 79472
AEROCUBE 12B            
1 43557U 18046D   19352.24174069  .00001108  00000-0  51301-4 0  9990
2 43557  51.6423 261.0458 0008425   8.0601 352.0513 15.29025841 79436
UITMSAT-1               
1 43589U 98067PD  19352.15056278  .00015967  00000-0  15075-3 0  9992
2 43589  51.6336 139.5270 0004823 132.2492 227.8914 15.67198758 77309
MAYA-1                  
1 43590U 98067PE  19351.82504313  .00017043  00000-0  16054-3 0  9990
2 43590  51.6338 141.1104 0004962 131.1815 228.9610 15.67198117 77189
BHUTAN-1                
1 43591U 98067PF  19352.12743682  .00015837  00000-0  14910-3 0  9997
2 43591  51.6348 139.4215 0005038 132.9710 227.1709 15.67276025 77233
SIRIUSSAT-1             
1 43595U 98067PG  19351.84331573  .00014361  00000-0  14265-3 0  9995
2 43595  51.6339 143.4875 0002791  96.7146 263.4167 15.66033056 76332
SIRIUSSAT-2             
1 43596U 98067PH  19352.14800328  .00014362  00000-0  14347-3 0  9991
2 43596  51.6349 142.5789 0003234  94.5300 265.6065 15.65889177 76376
TANUSHA-3               
1 43597U 98067PJ  19352.13951163  .00020715  00000-0  17805-3 0  9996
2 43597  51.6329 137.9133 0002611 120.4120 239.7135 15.69308143 76433
SURFSAT                 
1 43614U 18070B   19352.18314089  .00001780  00000-0  47236-4 0  9990
2 43614  93.0385  79.1543 0014062 330.4967  29.5492 15.38336961 70454
CP7 (DAVE)              
1 43615U 18070C   19351.80962092  .00001746  00000-0  46493-4 0  9998
2 43615  93.0387  78.9971 0014212 331.3599  28.6873 15.38228762 70392
ELFIN-B                 
1 43616U 18070D   19351.79135409  .00002639  00000-0  67973-4 0  9999
2 43616  93.0345  78.8971 0014860 334.2554  25.7959 15.39191850 70412
ELFIN-A                 
1 43617U 18070E   19351.90717896  .00002769  00000-0  71091-4 0  9999
2 43617  93.0399  79.3045 0013972 330.4939  29.5525 15.39304380 70435
CUBEBEL-1 (BSUSAT-1)    
1 43666U 18083E   19352.38639639  .00000965  00000-0  50920-4 0  9992
2 43666  97.5054  15.5094 0013520 275.4609 216.8442 15.17897217 62996
DEBRISSAT-2             
1 43680U 98067PR  19351.80666689  .00034110  00000-0  25440-3 0  9996
2 43680  51.6332 137.2293 0002437 150.6222 209.4913 15.72412320 85147
CICERO 10               
1 43690U 18088A   19352.07825371  .00000574  00000-0  24850-4 0  9999
2 43690  85.0385 198.4378 0012821 257.6918 102.2888 15.19930933 61037
IRVINE01                
1 43693U 18088D   19352.36369145  .00001995  00000-0  85202-4 0  9992
2 43693  85.0359 197.4460 0016221 238.5246 121.4411 15.22077035 61148
PROXIMA I               
1 43694U 18088E   19351.81767517  .00000713  00000-0  29659-4 0  9998
2 43694  85.0327 197.5994 0017529 231.1528 128.8150 15.21661159 61068
PROXIMA II              
1 43696U 18088G   19352.01356061  .00000690  00000-0  28633-4 0  9996
2 43696  85.0328 197.4720 0017586 230.2998 129.6694 15.21665266 61099
FACSAT-1                
1 43721U 18096C   19352.49350497  .00001032  00000-0  41897-4 0  9991
2 43721  97.4420  61.9139 0018946  49.1084 311.1792 15.26737525 58626
CENTAURI-2              
1 43722U 18096D   19352.17924156  .00001256  00000-0  49873-4 0  9996
2 43722  97.4425  61.7303 0019009  50.4893 309.8023 15.27094818 58574
INNOSAT-2               
1 43738U 18096V   19352.49809000  .00002098  00000-0  75535-4 0  9997
2 43738  97.4432  63.3058 0025204  57.4735 302.8935 15.29441615 58714
SIRION PATHFINDER-2     
1 43759U 18099B   19352.48790497  .00000472  00000-0  48132-4 0  9998
2 43759  97.7277  62.0530 0015784  73.1383 287.1567 14.95205646 56734
CORVUS-BC 4             
1 43767U 18099K   19351.82569003  .00000259  00000-0  29102-4 0  9990
2 43767  97.7262  61.0065 0013318  78.6324 281.6392 14.94646155 56621
MOVE-II                 
1 43780U 18099Y   19352.17509701  .00000025  00000-0  74754-5 0  9998
2 43780  97.7277  61.6460 0014986  84.6115 275.6815 14.95226286 56672
SPACEBEE-7              
1 43816U 18099BL  19352.15178814  .00000712  00000-0  69351-4 0  9992
2 43816  97.7291  61.8983 0014822  71.2516 289.0312 14.95545959 56241
SPACEBEE-5              
1 43817U 18099BM  19352.16726249  .00000710  00000-0  68480-4 0  9995
2 43817  97.7327  62.1171 0014511  71.8581 288.4219 14.95957547 56258
SPACEBEE-6              
1 43818U 18099BN  19351.73343243  .00000513  00000-0  51258-4 0  9993
2 43818  97.7297  61.5499 0014578  72.6020 287.6794 14.95672856 56336
SHIELDS 1               
1 43850U 18104B   19352.32879369  .00000041  00000-0  00000+0 0  9995
2 43850  85.0307 295.7289 0016333  26.4024 333.8069 15.21223750 55786
STF-1                   
1 43852U 18104D   19352.31695436  .00000041  00000-0  00000+0 0  9997
2 43852  85.0327 296.1353 0016147  41.5749 318.6727 15.20908927 55767
ZACUBE-2                
1 43907U 18111AH  19352.50389587  .00000543  00000-0  24869-4 0  9995
2 43907  97.2789 252.5828 0023249  67.8804 292.4899 15.24380490 54291
LUME 1                  
1 43908U 18111AJ  19352.47176737  .00000937  00000-0  40489-4 0  9996
2 43908  97.2788 252.6224 0023105  67.8428 292.5259 15.24667527 54295
AOBA VELOX-IV           
1 43940U 19003J   19352.42261574  .00001488  00000-0  63075-4 0  9990
2 43940  97.2550  44.7466 0025357 143.7568  47.5156 15.24374144 50915
CATSAT-2                
1 44029U 98067PV  19351.84123394  .00006008  00000-0  79141-4 0  9992
2 44029  51.6379 157.8386 0005160 117.5111 242.6407 15.59987964 49976
DELPHINI                
1 44030U 98067PW  19351.68199325  .00011103  00000-0  13872-3 0  9993
2 44030  51.6352 158.2310 0004795 116.2339 243.9148 15.60386134 49927
UNITE                   
1 44031U 98067PX  19351.76203017  .00006090  00000-0  85968-4 0  9992
2 44031  51.6368 160.2898 0003776 110.4881 249.6517 15.58082945 49906
TECHEDSAT 8             
1 44032U 98067PY  19351.82576215  .00043757  00000-0  34538-3 0  9990
2 44032  51.6338 147.9154 0002890 159.2332 200.8784 15.70942293 50057
CATSAT-1                
1 44033U 98067PZ  19351.90511109  .00005694  00000-0  75313-4 0  9996
2 44033  51.6381 157.5179 0005038 116.4625 243.6886 15.59997647 49895
RAAVANA-1               
1 44329U 98067QE  19351.87690713  .00005505  00000-0  89126-4 0  9997
2 44329  51.6387 167.0765 0006723  47.6915 312.4644 15.54507178 28575
UGUISU                  
1 44330U 98067QF  19351.88184627  .00005646  00000-0  91384-4 0  9997
2 44330  51.6387 167.1081 0006682  46.5951 313.5596 15.54456332 28552
NEPALISAT-1             
1 44331U 98067QG  19352.51569706  .00006204  00000-0  99367-4 0  9994
2 44331  51.6388 163.8433 0006791  50.9381 309.2213 15.54549641 28661
SPOOQY-1                
1 44332U 98067QH  19352.12721448  .00005324  00000-0  86364-4 0  9990
2 44332  51.6387 165.7459 0005696  53.2513 306.9000 15.54532763 28560
SPACEBEE-9              
1 44370U 19037F   19352.18861126  .00004745  00000-0  12127-3 0  9997
2 44370  45.0151  52.7888 0013859 201.0353 158.9967 15.40816750 26464
SPACEBEE-8              
1 44371U 19037G   19351.64468875  .00010577  00000-0  24469-3 0  9994
2 44371  45.0150  54.6498 0012544 203.7566 156.2747 15.42643375 26388
IOD-1 GEMS              
1 44385U 98067QK  19352.08379634  .00008797  00000-0  13537-3 0  9997
2 44385  51.6399 166.2296 0002605  21.6295 338.4806 15.55058918 26062
MOVE-IIB                
1 44398U 19038N   19352.17665369  .00001047  00000-0  64472-4 0  9991
2 44398  97.5128 311.0661 0026561  38.1201 322.1901 15.11915759 25037
SONATE                  
1 44400U 19038Q   19352.11397564  .00000487  00000-0  32126-4 0  9996
2 44400  97.5149 311.0210 0026356  36.8146 323.4887 15.11773216 25025
LUCKY-7                 
1 44406U 19038W   19351.89397469  .00000538  00000-0  34931-4 0  9993
2 44406  97.5145 310.8507 0025825  37.4152 322.8870 15.11987701 24982
BEESAT 9                
1 44412U 19038AC  19352.16221936  .00000720  00000-0  45469-4 0  9997
2 44412  97.5141 311.1008 0024070  42.3203 317.9879 15.11990112 24724
JAISAT-1                
1 44419U 19038F   19352.17451674  .00000690  00000-0  43205-4 0  9991
2 44419  97.5143 311.2399 0022925  42.0911 318.2076 15.12476008 25040
SWIATOWID               
1 44426U 98067QL  19352.54376986  .00010615  00000-0  16116-3 0  9999
2 44426  51.6420 163.9572 0003089  14.8003  25.4536 15.55175695 26157
KRAKSAT                 
1 44427U 98067QM  19352.29293633  .00004618  00000-0  78903-4 0  9998
2 44427  51.6427 166.1164 0003262  14.3985 345.7091 15.53419873 26144
VCC A                   
1 44428U 98067QN  19352.06174713  .00005390  00000-0  88957-4 0  9999
2 44428  51.6405 166.8286 0002812  32.2299 327.8863 15.54015132 26116
